     2.100          NAVIGATION                              RINEX VERSION / TYPE
fic2rin                                 01/30/2016 00:08:45 PGM / RUN BY / DATE
                                                            END OF HEADER
16 16  1 29  2  0  0.0 -.443733297288D-04  .318323145621D-11  .000000000000D+00
     .240000000000D+02  .260312500000D+02  .374694178945D-08  .189530689356D+01
     .157207250595D-05  .846582069062D-02  .105351209641D-04  .515370555115D+04
     .439200000000D+06 -.128522515297D-06 -.206240648899D+01  .158324837685D-06
     .990787913311D+00  .194312500000D+03  .318903460706D+00 -.770460664208D-08
     .425017703693D-10  .100000000000D+01  .188100000000D+04  .000000000000D+00
     .240000000000D+01  .000000000000D+00 -.102445483208D-07  .240000000000D+02
     .432006000000D+06  .400000000000D+01
17 16  1 29  2  0  0.0 -.199734698981D-03 -.795807864051D-12  .000000000000D+00
     .540000000000D+02  .157812500000D+02  .447482925174D-08  .922283980075D+00
     .841915607452D-06  .109669653466D-01  .499188899994D-05  .515362934113D+04
     .439200000000D+06 -.171363353729D-06 -.103886229797D+01  .596046447754D-07
     .974953067120D+00  .295125000000D+03 -.195836915190D+01 -.835963392659D-08
     .228580949885D-10  .100000000000D+01  .188100000000D+04  .000000000000D+00
     .240000000000D+01  .000000000000D+00 -.107102096081D-07  .540000000000D+02
     .432006000000D+06  .400000000000D+01
18 16  1 29  2  0  0.0  .477829482406D-03  .386535248253D-11  .000000000000D+00
     .430000000000D+02 -.143750000000D+01  .491949063082D-08  .247605596930D+01
    -.109896063805D-06  .165557701839D-01  .114124268293D-04  .515366387177D+04
     .439200000000D+06  .182539224625D-06  .981498815068D+00 -.178813934326D-06
     .924965738593D+00  .135968750000D+03 -.191597305451D+01 -.790997233924D-08
     .181436128972D-09  .100000000000D+01  .188100000000D+04  .000000000000D+00
     .240000000000D+01  .000000000000D+00 -.111758708954D-07  .430000000000D+02
     .432006000000D+06  .400000000000D+01
19 16  1 29  2  0  0.0 -.524644274265D-03 -.227373675443D-12  .000000000000D+00
     .440000000000D+02  .103437500000D+02  .447661504041D-08 -.188549885878D+01
     .517815351486D-06  .112567034084D-01  .414997339249D-05  .515519224548D+04
     .439200000000D+06  .124797224998D-06 -.989786561978D+00 -.596046447754D-07
     .972056752648D+00  .303843750000D+03  .675362370639D+00 -.810569477758D-08
     .210008747707D-09  .100000000000D+01  .188100000000D+04  .000000000000D+00
     .240000000000D+01  .000000000000D+00 -.153668224812D-07  .440000000000D+02
     .432006000000D+06  .400000000000D+01
20 16  1 29  2  0  0.0  .389002729207D-03  .261479726760D-11  .000000000000D+00
     .680000000000D+02 -.290625000000D+01  .502949521295D-08  .177228527148D+00
    -.577419996262D-07  .494181097019D-02  .110305845737D-04  .515369263458D+04
     .439200000000D+06 -.145286321640D-06  .929515410894D+00  .223517417908D-07
     .926248115026D+00  .150375000000D+03  .132211124130D+01 -.826427281156D-08
     .128576784311D-09  .100000000000D+01  .188100000000D+04  .000000000000D+00
     .240000000000D+01  .000000000000D+00 -.838190317154D-08  .680000000000D+02
     .432006000000D+06  .400000000000D+01
21 16  1 29  2  0  0.0 -.507675576955D-03 -.193267624127D-11  .000000000000D+00
     .810000000000D+02 -.865000000000D+02  .497592155282D-08 -.292784932106D+01
    -.457093119621D-05  .230335631641D-01  .643916428089D-05  .515368270683D+04
     .439200000000D+06  .322237610817D-06 -.604945825622D-01 -.745058059692D-07
     .935912912575D+00  .236812500000D+03 -.183674485504D+01 -.803033449566D-08
    -.225009372544D-09  .100000000000D+01  .188100000000D+04  .000000000000D+00
     .240000000000D+01  .000000000000D+00 -.116415321827D-07  .810000000000D+02
     .432006000000D+06  .400000000000D+01
22 16  1 29  2  0  0.0  .405189115554D-03 -.534328137292D-11  .000000000000D+00
     .680000000000D+02 -.668750000000D+01  .519950229443D-08  .145184346464D+01
    -.325962901115D-06  .758482492529D-02  .112354755402D-04  .515510493660D+04
     .439200000000D+06 -.162050127983D-06  .982281973633D+00 -.633299350739D-07
     .922811645849D+00  .144093750000D+03 -.202500943576D+01 -.839034949173D-08
     .121433629627D-09  .100000000000D+01  .188100000000D+04  .000000000000D+00
     .240000000000D+01  .000000000000D+00 -.176951289177D-07  .680000000000D+02
     .432006000000D+06  .400000000000D+01
23 16  1 29  2  0  0.0 -.157314818352D-03 -.193267624127D-11  .000000000000D+00
     .100000000000D+03  .410625000000D+02  .515807199726D-08 -.348046456572D+00
     .230222940445D-05  .104352178751D-01  .570155680180D-05  .515373123169D+04
     .439200000000D+06  .726431608200D-07  .205763916228D+01  .135973095894D-06
     .946331734675D+00  .261312500000D+03 -.261471220798D+01 -.856214236188D-08
     .218580533328D-09  .100000000000D+01  .188100000000D+04  .000000000000D+00
     .240000000000D+01  .000000000000D+00 -.200234353542D-07  .100000000000D+03
     .432006000000D+06  .400000000000D+01
24 16  1 29  2  0  0.0 -.114957801998D-04 -.682121026330D-12  .000000000000D+00
     .900000000000D+01 -.290312500000D+02  .496699260946D-08 -.963311206007D+00
    -.154413282871D-05  .418202427682D-02  .690482556820D-05  .515363319016D+04
     .439200000000D+06  .577419996262D-07  .308378111984D+01  .186264514923D-08
     .951060340875D+00  .240406250000D+03  .349154163512D+00 -.831106047474D-08
    -.312870175156D-09  .100000000000D+01  .188100000000D+04  .000000000000D+00
     .240000000000D+01  .000000000000D+00  .232830643654D-08  .900000000000D+01
     .432006000000D+06  .400000000000D+01
26 16  1 29  2  0  0.0 -.231344252825D-03 -.162572177942D-10  .000000000000D+00
     .950000000000D+02  .284062500000D+02  .443339895458D-08  .287797005683D+01
     .154599547386D-05  .769700156525D-03  .101961195469D-04  .515370744705D+04
     .439200000000D+06 -.298023223877D-07 -.213753774395D+01 -.745058059692D-08
     .960659001361D+00  .182937500000D+03 -.178883779456D+00 -.797783230874D-08
     .657170230921D-10  .100000000000D+01  .188100000000D+04  .000000000000D+00
     .240000000000D+01  .000000000000D+00  .698491930962D-08  .950000000000D+02
     .432006000000D+06  .400000000000D+01
28 16  1 29  2  0  0.0  .498601701111D-03  .261479726760D-11  .000000000000D+00
     .740000000000D+02  .290312500000D+02  .375301347093D-08  .166729330720D+01
     .114738941193D-05  .199939310551D-01  .933185219765D-05  .515362828827D+04
     .439200000000D+06  .745058059692D-07 -.205732298911D+01 -.506639480591D-06
     .989461024669D+00  .214812500000D+03 -.162673701946D+01 -.760710258064D-08
     .110718897601D-09  .100000000000D+01  .188100000000D+04  .000000000000D+00
     .240000000000D+01  .000000000000D+00 -.107102096081D-07  .740000000000D+02
     .432006000000D+06  .400000000000D+01
29 16  1 29  2  0  0.0  .652966555208D-03  .102318153949D-11  .000000000000D+00
     .160000000000D+02  .192812500000D+02  .440304054717D-08 -.277788802159D+01
     .892207026482D-06  .101279001683D-02  .439025461674D-05  .515362067604D+04
     .439200000000D+06  .000000000000D+00 -.102925362528D+01  .745058059692D-08
     .975886119197D+00  .301562500000D+03 -.588253046735D+00 -.815855412224D-08
     .126790995640D-09  .100000000000D+01  .188100000000D+04  .000000000000D+00
     .240000000000D+01  .000000000000D+00 -.102445483208D-07  .160000000000D+02
     .432006000000D+06  .400000000000D+01
30 16  1 29  2  0  0.0  .900123268366D-04  .454747350886D-11  .000000000000D+00
     .730000000000D+02 -.240625000000D+02  .480698594455D-08 -.187368410123D+01
    -.138394534588D-05  .166686077137D-02  .742450356483D-05  .515364518356D+04
     .439200000000D+06  .931322574615D-08 -.310850298563D+01 -.726431608200D-07
     .953764338673D+00  .235375000000D+03  .304857484933D+01 -.822712840721D-08
    -.296798077117D-09  .100000000000D+01  .188100000000D+04  .000000000000D+00
     .240000000000D+01  .000000000000D+00  .325962901115D-08  .730000000000D+02
     .432006000000D+06  .400000000000D+01
31 16  1 29  2  0  0.0  .285029411316D-03 -.170530256582D-11  .000000000000D+00
     .500000000000D+02 -.278750000000D+02  .448340103736D-08 -.196045507998D+01
    -.148080289364D-05  .834741594736D-02  .779889523983D-05  .515368346786D+04
     .439200000000D+06 -.186264514923D-06  .313767039906D+01 -.745058059692D-07
     .972819333807D+00  .239562500000D+03 -.442804382866D+00 -.806069290307D-08
    -.323584907182D-09  .100000000000D+01  .188100000000D+04  .000000000000D+00
     .240000000000D+01  .000000000000D+00 -.135041773319D-07  .500000000000D+02
     .432006000000D+06  .400000000000D+01
14 16  1 29  1 59 44.0  .635860487819D-05 -.227373675443D-11  .000000000000D+00
     .100000000000D+01  .374687500000D+02  .479555689705D-08  .855324883943D+00
     .187009572983D-05  .829826097470D-02  .552833080292D-05  .515371250916D+04
     .439184000000D+06 -.987201929092D-07  .213394584412D+01  .167638063431D-07
     .964390800051D+00  .272468750000D+03 -.194886907747D+01 -.841142179805D-08
     .162863926793D-09  .100000000000D+01  .188100000000D+04  .000000000000D+00
     .240000000000D+01  .000000000000D+00 -.931322574615D-08  .100000000000D+01
     .437016000000D+06  .400000000000D+01
14 16  1 29  3 59 44.0  .634184107184D-05 -.227373675443D-11  .000000000000D+00
     .600000000000D+01  .396250000000D+02  .465126517244D-08  .190550052722D+01
     .206194818020D-05  .829808460549D-02  .546313822269D-05  .515371219063D+04
     .446384000000D+06 -.353902578354D-07  .213388523396D+01 -.238418579102D-06
     .964393215328D+00  .274000000000D+03 -.194888531147D+01 -.818319800590D-08
     .256796410887D-09  .100000000000D+01  .188100000000D+04  .000000000000D+00
     .240000000000D+01  .000000000000D+00 -.931322574615D-08  .600000000000D+01
     .439206000000D+06  .400000000000D+01
